[{"OBJECT_NAME":"LAPAN-TUBSAT","OBJECT_ID":"2007-001A","EPOCH":"2026-03-09T23:52:11.769024","MEAN_MOTION":14.8582984,"ECCENTRICITY":0.0012806,"INCLINATION":98.1337,"RA_OF_ASC_NODE":66,"ARG_OF_PERICENTER":143.3613,"MEAN_ANOMALY":216.848,"EPHEMERIS_TYPE":0,"CLASSIFICATION_TYPE":"U","NORAD_CAT_ID":29709,"ELEMENT_SET_NO":999,"REV_AT_EPOCH":3642,"BSTAR":8.085944e-5,"MEAN_MOTION_DOT":6.47e-6,"MEAN_MOTION_DDOT":0},{"OBJECT_NAME":"SL-14 R\/B","OBJECT_ID":"1984-111B","EPOCH":"2026-03-09T21:13:00.090048","MEAN_MOTION":14.86060168,"ECCENTRICITY":0.00194189,"INCLINATION":82.512,"RA_OF_ASC_NODE":256.2815,"ARG_OF_PERICENTER":336.2654,"MEAN_ANOMALY":23.7664,"EPHEMERIS_TYPE":0,"CLASSIFICATION_TYPE":"U","NORAD_CAT_ID":15370,"ELEMENT_SET_NO":999,"REV_AT_EPOCH":21590,"BSTAR":6.4730325e-5,"MEAN_MOTION_DOT":5.92e-6,"MEAN_MOTION_DDOT":0}]
